QIANFAN-65              
1 62795U 25016L   25262.00055606  .00000060  00000+0  74940-4 0  9995
2 62795  88.9750 111.8297 0012435 223.9014 136.1150 13.50968817 35804
QIANFAN-66              
1 62796U 25016M   25261.95531965  .00000052  00000+0  62402-4 0  9997
2 62796  88.9769 111.7879 0013630 219.5240 140.4918 13.50963988 35848
QIANFAN-67              
1 62797U 25016N   25261.95932264  .00000054  00000+0  64478-4 0  9992
2 62797  88.9759 111.8214 0013478 227.1224 132.8796 13.50965441 35811
QIANFAN-68              
1 62798U 25016P   25261.95458556  .00000060  00000+0  73067-4 0  9991
2 62798  88.9763 111.8648 0013728 225.5452 134.4578 13.52428377 35798
QIANFAN-69              
1 62799U 25016Q   25261.96760991  .00000043  00000+0  48046-4 0  9992
2 62799  88.9742 111.7503 0014291 226.5407 133.4556 13.50965539 35836
QIANFAN-70              
1 62800U 25016R   25261.98402078  .00000076  00000+0  98867-4 0  9998
2 62800  88.9763 111.8691 0014069 215.7780 144.2430 13.50969923 35795
QIANFAN-71              
1 62801U 25016S   25261.97998575  .00000063  00000+0  78682-4 0  9999
2 62801  88.9757 111.8542 0014150 230.3869 129.6034 13.50969209 35790
QIANFAN-72              
1 62802U 25016T   25261.98256741  .00000068  00000+0  88730-4 0  9993
2 62802  88.9747 111.8722 0017594 238.5672 121.3758 13.49485198 35786
